{
  "type": "FeatureCollection",
  "features": [
    {
      "type": "Feature",
      "properties": {
        "norad_id": 66907,
        "name": "1998-067XT",
        "group": "stations",
        "lat": 47.70308838002185,
        "lon": -73.58002285413949,
        "alt_km": 408.26705568176567,
        "timestamp": "2025-12-07T18:50:15.531619+00:00",
        "meta_object_name": "1998-067XT",
        "meta_object_id": "1998-067XT",
        "meta_epoch": "2025-12-07T05:59:38.363712",
        "meta_mean_motion": 15.50548845,
        "meta_eccentricity": 0.00050774,
        "meta_inclination": 51.6298,
        "meta_ra_of_asc_node": 169.6308,
        "meta_arg_of_pericenter": 196.245,
        "meta_mean_anomaly": 163.8377,
        "meta_ephemeris_type": 0,
        "meta_classification_type": "U",
        "meta_norad_cat_id": 66907,
        "meta_element_set_no": 999,
        "meta_rev_at_epoch": 76,
        "meta_bstar": 0.0013100071,
        "meta_mean_motion_dot": 0.00076543,
        "meta_mean_motion_ddot": 0,
        "tle_line1": "1 66907U 98067XT  25341.24974958  .00076543  00000+0  13100-2 0  9992",
        "tle_line2": "2 66907  51.6298 169.6308 0005077 196.2450 163.8377 15.50548845   763"
      },
      "geometry": {
        "type": "Point",
        "coordinates": [
          -73.58002285413949,
          47.70308838002185
        ]
      }
    },
    {
      "type": "Feature",
      "properties": {
        "norad_id": 66908,
        "name": "1998-067XU",
        "group": "stations",
        "lat": 47.35782251899233,
        "lon": -72.38441284263546,
        "alt_km": 408.1142567027837,
        "timestamp": "2025-12-07T18:50:15.531629+00:00",
        "meta_object_name": "1998-067XU",
        "meta_object_id": "1998-067XU",
        "meta_epoch": "2025-12-07T05:59:26.026656",
        "meta_mean_motion": 15.50595365,
        "meta_eccentricity": 0.00052733,
        "meta_inclination": 51.6295,
        "meta_ra_of_asc_node": 169.6298,
        "meta_arg_of_pericenter": 195.7563,
        "meta_mean_anomaly": 164.3263,
        "meta_ephemeris_type": 0,
        "meta_classification_type": "U",
        "meta_norad_cat_id": 66908,
        "meta_element_set_no": 999,
        "meta_rev_at_epoch": 76,
        "meta_bstar": 0.0011866563,
        "meta_mean_motion_dot": 0.00069346,
        "meta_mean_motion_ddot": 0,
        "tle_line1": "1 66908U 98067XU  25341.24960679  .00069346  00000+0  11867-2 0  9999",
        "tle_line2": "2 66908  51.6295 169.6298 0005273 195.7563 164.3263 15.50595365   765"
      },
      "geometry": {
        "type": "Point",
        "coordinates": [
          -72.38441284263546,
          47.35782251899233
        ]
      }
    },
    {
      "type": "Feature",
      "properties": {
        "norad_id": 66909,
        "name": "1998-067XV",
        "group": "stations",
        "lat": 47.20481211648353,
        "lon": -71.87326033763533,
        "alt_km": 407.9548337915094,
        "timestamp": "2025-12-07T18:50:15.531639+00:00",
        "meta_object_name": "1998-067XV",
        "meta_object_id": "1998-067XV",
        "meta_epoch": "2025-12-06T23:48:09.042912",
        "meta_mean_motion": 15.50609226,
        "meta_eccentricity": 0.00052543,
        "meta_inclination": 51.6296,
        "meta_ra_of_asc_node": 170.9073,
        "meta_arg_of_pericenter": 195.3758,
        "meta_mean_anomaly": 164.7072,
        "meta_ephemeris_type": 0,
        "meta_classification_type": "U",
        "meta_norad_cat_id": 66909,
        "meta_element_set_no": 999,
        "meta_rev_at_epoch": 72,
        "meta_bstar": 0.0013867176,
        "meta_mean_motion_dot": 0.00081279,
        "meta_mean_motion_ddot": 0,
        "tle_line1": "1 66909U 98067XV  25340.99177133  .00081279  00000+0  13867-2 0  9997",
        "tle_line2": "2 66909  51.6296 170.9073 0005254 195.3758 164.7072 15.50609226   724"
      },
      "geometry": {
        "type": "Point",
        "coordinates": [
          -71.87326033763533,
          47.20481211648353
        ]
      }
    },
    {
      "type": "Feature",
      "properties": {
        "norad_id": 66910,
        "name": "1998-067XW",
        "group": "stations",
        "lat": 44.88840400156031,
        "lon": -65.15284416997005,
        "alt_km": 406.24484960485825,
        "timestamp": "2025-12-07T18:50:15.531649+00:00",
        "meta_object_name": "1998-067XW",
        "meta_object_id": "1998-067XW",
        "meta_epoch": "2025-12-07T05:58:08.485248",
        "meta_mean_motion": 15.50882023,
        "meta_eccentricity": 0.0006057,
        "meta_inclination": 51.6294,
        "meta_ra_of_asc_node": 169.6237,
        "meta_arg_of_pericenter": 181.9065,
        "meta_mean_anomaly": 178.1903,
        "meta_ephemeris_type": 0,
        "meta_classification_type": "U",
        "meta_norad_cat_id": 66910,
        "meta_element_set_no": 999,
        "meta_rev_at_epoch": 76,
        "meta_bstar": 0.0012693792,
        "meta_mean_motion_dot": 0.00075043,
        "meta_mean_motion_ddot": 0,
        "tle_line1": "1 66910U 98067XW  25341.24870932  .00075043  00000+0  12694-2 0  9994",
        "tle_line2": "2 66910  51.6294 169.6237 0006057 181.9065 178.1903 15.50882023   769"
      },
      "geometry": {
        "type": "Point",
        "coordinates": [
          -65.15284416997005,
          44.88840400156031
        ]
      }
    },
    {
      "type": "Feature",
      "properties": {
        "norad_id": 66911,
        "name": "1998-067XX",
        "group": "stations",
        "lat": 44.46159495592235,
        "lon": -64.07863222667089,
        "alt_km": 406.01591881663717,
        "timestamp": "2025-12-07T18:50:15.531658+00:00",
        "meta_object_name": "1998-067XX",
        "meta_object_id": "1998-067XX",
        "meta_epoch": "2025-12-07T05:57:57.962592",
        "meta_mean_motion": 15.50976339,
        "meta_eccentricity": 0.000596,
        "meta_inclination": 51.6294,
        "meta_ra_of_asc_node": 169.6228,
        "meta_arg_of_pericenter": 182.6647,
        "meta_mean_anomaly": 177.4311,
        "meta_ephemeris_type": 0,
        "meta_classification_type": "U",
        "meta_norad_cat_id": 66911,
        "meta_element_set_no": 999,
        "meta_rev_at_epoch": 75,
        "meta_bstar": 0.0014605419,
        "meta_mean_motion_dot": 0.00086834,
        "meta_mean_motion_ddot": 0,
        "tle_line1": "1 66911U 98067XX  25341.24858753  .00086834  00000+0  14605-2 0  9996",
        "tle_line2": "2 66911  51.6294 169.6228 0005960 182.6647 177.4311 15.50976339   754"
      },
      "geometry": {
        "type": "Point",
        "coordinates": [
          -64.07863222667089,
          44.46159495592235
        ]
      }
    },
    {
      "type": "Feature",
      "properties": {
        "norad_id": 66912,
        "name": "1998-067XY",
        "group": "stations",
        "lat": 48.213887462237636,
        "lon": -75.47014338489943,
        "alt_km": 408.64036453213157,
        "timestamp": "2025-12-07T18:50:15.531668+00:00",
        "meta_object_name": "1998-067XY",
        "meta_object_id": "1998-067XY",
        "meta_epoch": "2025-12-06T19:10:11.930016",
        "meta_mean_motion": 15.50363521,
        "meta_eccentricity": 0.00052356,
        "meta_inclination": 51.6299,
        "meta_ra_of_asc_node": 171.8684,
        "meta_arg_of_pericenter": 194.0341,
        "meta_mean_anomaly": 166.0503,
        "meta_ephemeris_type": 0,
        "meta_classification_type": "U",
        "meta_norad_cat_id": 66912,
        "meta_element_set_no": 999,
        "meta_rev_at_epoch": 68,
        "meta_bstar": 0.0011553511,
        "meta_mean_motion_dot": 0.00066928,
        "meta_mean_motion_ddot": 0,
        "tle_line1": "1 66912U 98067XY  25340.79874919  .00066928  00000+0  11554-2 0  9990",
        "tle_line2": "2 66912  51.6299 171.8684 0005235 194.0341 166.0503 15.50363521   686"
      },
      "geometry": {
        "type": "Point",
        "coordinates": [
          -75.47014338489943,
          48.213887462237636
        ]
      }
    }
  ]
}